{"type":"FeatureCollection","features":[{"type":"Feature","properties":{"@circle":{"type":"Mercator","center":[-3.1932798,55.9523657]}},"geometry":{"type":"Polygon","coordinates":[[[-3.150161,55.952366],[-3.150246,55.953882],[-3.150501,55.955391],[-3.150924,55.956889],[-3.151515,55.958369],[-3.152271,55.959825],[-3.153189,55.961252],[-3.154264,55.962643],[-3.155494,55.963994],[-3.156873,55.965299],[-3.158396,55.966553],[-3.160056,55.967751],[-3.161847,55.968888],[-3.163763,55.96996],[-3.165795,55.970963],[-3.167935,55.971892],[-3.170175,55.972744],[-3.172507,55.973515],[-3.174921,55.974204],[-3.177407,55.974806],[-3.179955,55.975319],[-3.182557,55.975742],[-3.1852,55.976072],[-3.187876,55.97631],[-3.190572,55.976452],[-3.19328,55.9765],[-3.195987,55.976452],[-3.198684,55.97631],[-3.20136,55.976072],[-3.204003,55.975742],[-3.206604,55.975319],[-3.209153,55.974806],[-3.211639,55.974204],[-3.214053,55.973515],[-3.216384,55.972744],[-3.218625,55.971892],[-3.220765,55.970963],[-3.222797,55.96996],[-3.224712,55.968888],[-3.226504,55.967751],[-3.228164,55.966553],[-3.229686,55.965299],[-3.231065,55.963994],[-3.232295,55.962643],[-3.233371,55.961252],[-3.234289,55.959825],[-3.235044,55.958369],[-3.235635,55.956889],[-3.236059,55.955391],[-3.236314,55.953882],[-3.236399,55.952366],[-3.236314,55.95085],[-3.236059,55.94934],[-3.235635,55.947842],[-3.235044,55.946361],[-3.234289,55.944905],[-3.233371,55.943478],[-3.232295,55.942085],[-3.231065,55.940734],[-3.229686,55.939428],[-3.228164,55.938173],[-3.226504,55.936974],[-3.224712,55.935836],[-3.222797,55.934763],[-3.220765,55.93376],[-3.218625,55.93283],[-3.216384,55.931977],[-3.214053,55.931204],[-3.211639,55.930516],[-3.209153,55.929913],[-3.206604,55.929399],[-3.204003,55.928975],[-3.20136,55.928644],[-3.198684,55.928407],[-3.195987,55.928264],[-3.19328,55.928217],[-3.190572,55.928264],[-3.187876,55.928407],[-3.1852,55.928644],[-3.182557,55.928975],[-3.179955,55.929399],[-3.177407,55.929913],[-3.174921,55.930516],[-3.172507,55.931204],[-3.170175,55.931977],[-3.167935,55.93283],[-3.165795,55.93376],[-3.163763,55.934763],[-3.161847,55.935836],[-3.160056,55.936974],[-3.158396,55.938173],[-3.156873,55.939428],[-3.155494,55.940734],[-3.154264,55.942085],[-3.153189,55.943478],[-3.152271,55.944905],[-3.151515,55.946361],[-3.150924,55.947842],[-3.150501,55.94934],[-3.150161,55.952366]]]}}]}